NUSAT-1 (FRESCO)        
1 41557U 16033B   22231.20367836  .00010847  00000+0  31145-3 0  9996
2 41557  97.3900 329.0692 0011491 146.8815 271.5125 15.35957549347013
BEESAT-4                
1 41619U 16040W   22231.41274034  .00015774  00000+0  50284-3 0  9992
2 41619  97.2119 280.4061 0007626 244.3197 115.7258 15.32583310330369
CAS-2T & KS-1Q          
1 41847U 16066G   22231.42546085  .00000614  00000+0  10159-3 0  9996
2 41847  98.5466 296.0134 0363823  21.6911 339.9248 14.38695759303409
NAYIF-1 (EO-88)         
1 42017U 17008BX  22230.60472700  .00017836  00000+0  50509-3 0  9991
2 42017  97.2640 295.8750 0005256  41.4206 318.7436 15.36321571306617
ZHUHAI-1 02 (CAS-4B)    
1 42759U 17034B   22231.53196877  .00002957  00000+0  18053-3 0  9990
2 42759  43.0184 344.9111 0010455 322.3751 141.0346 15.12276514285907
ZHUHAI-1 01 (CAS-4A)    
1 42761U 17034D   22231.56594228  .00003184  00000+0  19294-3 0  9999
2 42761  43.0188 343.4641 0010787 324.5350 148.8973 15.12364868285915
MAX VALIER SAT          
1 42778U 17036P   22230.82188377  .00009782  00000+0  36158-3 0  9999
2 42778  97.2009 269.7990 0012605 103.9068 256.3575 15.27835919286425
RADFXSAT (FOX-1B)       
1 43017U 17073E   22230.64055667  .00005056  00000+0  38009-3 0  9999
2 43017  97.6662 122.2795 0246963 344.5396  14.8366 14.81820226256325
FOX-1D (AO-92)          
1 43137U 18004AC  22230.42793837  .00012486  00000+0  42689-3 0  9995
2 43137  97.3647 305.0580 0008743 134.9183 225.2768 15.30373893255813
DIWATA-2B               
1 43678U 18084H   22231.28065904  .00001079  00000+0  11141-3 0  9990
2 43678  97.9796   5.3141 0011326  79.2285 281.0214 14.92262321207220
ES'HAIL 2               
1 43700U 18090A   22231.29180670  .00000138  00000+0  00000+0 0  9995
2 43700   0.0128 108.5986 0002065  84.6422 265.1831  1.00273255 13907
FOX-1CLIFF (AO-95)      
1 43770U 18099N   22231.17259526  .00002349  00000+0  21035-3 0  9996
2 43770  97.6158 295.8906 0015160  68.0692 292.2139 14.96683346202396
ITASAT 1                
1 43786U 18099AE  22231.16045992  .00001348  00000+0  12246-3 0  9994
2 43786  97.6195 296.8307 0016069  60.8713 299.4115 14.96799506202437
JY1SAT (JO-97)          
1 43803U 18099AX  22231.15636352  .00001999  00000+0  17668-3 0  9994
2 43803  97.6157 296.6012 0015986  60.0305 300.2502 14.97352819202458
UWE-4                   
1 43880U 18111E   22231.44462030  .00001864  00000+0  16075-3 0  9998
2 43880  97.6624 136.6526 0013275 104.6488 255.6207 14.98438434197133
NEXUS (FO-99)           
1 43937U 19003F   22231.03080838  .00015326  00000+0  49586-3 0  9990
2 43937  97.1272 261.9874 0017892 291.1657  68.7673 15.31984232199555
PSAT2 (NO-104)          
1 44354U 19036R   22231.33441705  .00058618 -56692-5  46729-3 0  9999
2 44354  28.5249 100.3651 0210085 323.0745  35.5556 15.45623507174399
JAISAT-1                
1 44419U 19038F   22230.67432505  .00008860  00000+0  43572-3 0  9999
2 44419  97.6403 201.3491 0016912 276.7117  83.2191 15.18140475172496
DUCHIFAT-3              
1 44854U 19089C   22230.98601803  .00002674  00000+0  20930-3 0  9991
2 44854  36.9653  89.5309 0008609 359.3404 138.6079 15.01409667147335
CAS-6 (TIANQIN 1)       
1 44881U 19093C   22231.10998296  .00000382  00000+0  55074-4 0  9998
2 44881  97.8911 309.4163 0014640 348.0613  12.0256 14.81786988144058
RS-44 & BREEZE-KM R/B   
1 44909U 19096E   22230.34596836  .00000008  00000+0 -16904-4 0  9996
2 44909  82.5229 189.1587 0217386 174.7230 185.6237 12.79714273123423
ORBITAL FACTORY 2 (OF-2)
1 45113U 19071C   22230.39165102  .00029504  00000+0  55666-3 0  9998
2 45113  51.6369 113.9855 0009100  47.7085 312.4673 15.48179149142966
HUSKYSAT-1 (HO-107)     
1 45119U 19071J   22231.28085969  .00027073  00000+0  53390-3 0  9996
2 45119  51.6372 110.1441 0008976  46.5768 313.5966 15.46949336143083
BY70-2                  
1 45857U 20042B   22231.16125140  .00004780  00000+0  63159-3 0  9992
2 45857  97.9535 307.4259 0008721 271.6945  88.3280 14.80443260114738
SALSAT                  
1 46495U 20068K   22230.47703800  .00001560  00000+0  11486-3 0  9996
2 46495  97.7308 171.8131 0018064  69.3851 290.9310 15.04722748103511
BY70-3                  
1 46839U 20079N   22231.53910434  .00020624  00000+0  44805-3 0  9994
2 46839  97.1942 302.8954 0006902 105.3111   9.6151 15.44353655 99971
RADFXSAT-2 (AO-109)     
1 47311U 21002C   22230.26784680  .00011039  00000+0  43020-3 0  9996
2 47311  60.6846 129.4075 0027613  22.4806 337.7485 15.26118842 87894
UVSQ-SAT                
1 47438U 21006AB  22230.12717054  .00006358  00000+0  33105-3 0  9997
2 47438  97.4324 287.8799 0013134  65.5125 294.7476 15.16285561 86624
DIY-1 (ARDUIQUBE)       
1 47963U 21022AH  22231.25379216  .00017712  00000+0  94561-3 0  9996
2 47963  97.5247 131.9359 0013995 277.1552  82.8089 15.15105142 76454
XW-3 (CAS-9)            
1 50466U 21131B   22231.19025561  .00000107  00000+0  49679-4 0  9994
2 50466  98.5782 308.4086 0003677 335.5680  24.5332 14.38516084 33931
TEVEL-3                 
1 50988U 22002E   22231.18233675  .00005480  00000+0  29598-3 0  9993
2 50988  97.4768 297.1321 0009105 197.7937 221.0505 15.15089498 32916
TEVEL-8                 
1 50989U 22002F   22231.40152440  .00005416  00000+0  29301-3 0  9990
2 50989  97.4790 297.3726 0009250 196.0481 297.8984 15.15038477 32946
TEVEL-5                 
1 50998U 22002Q   22231.18328252  .00005629  00000+0  29966-3 0  9994
2 50998  97.4764 297.2616 0010686 194.0832 225.3161 15.15579959 32923
TEVEL-6                 
1 50999U 22002R   22231.18237442  .00005624  00000+0  29936-3 0  9997
2 50999  97.4762 297.2591 0010756 193.8933 223.4074 15.15584302 32921
TEVEL-1                 
1 51013U 22002AF  22231.18549675  .00005378  00000+0  29077-3 0  9991
2 51013  97.4772 297.1138 0008989 197.1568 221.3127 15.15062881 32910
TEVEL-7                 
1 51062U 22002CG  22231.19217627  .00005323  00000+0  28813-3 0  9992
2 51062  97.4784 297.1533 0009084 195.9522 227.7123 15.15026898 32913
TEVEL-4                 
1 51063U 22002CH  22231.19283852  .00005277  00000+0  28576-3 0  9990
2 51063  97.4783 297.1501 0009037 196.1303 226.7021 15.15017301 32911
TEVEL-2                 
1 51069U 22002CP  22231.18419175  .00005433  00000+0  29358-3 0  9997
2 51069  97.4765 297.1195 0008998 197.8735 223.9208 15.15081455 32915
RS3S                    
1 53308U 98067TT  22231.48019867  .00039547  00000+0  64965-3 0  9992
2 53308  51.6425  22.8507 0002191 127.3726 232.7463 15.51999405  4547
RS1S                    
1 53309U 98067TU  22230.96442840  .00052223  00000+0  85369-3 0  9993
2 53309  51.6422  25.4052 0002794 145.3767 214.7405 15.52011209  4413
RS5S                    
1 53310U 98067TV  22230.90018367  .00050853  00000+0  83342-3 0  9998
2 53310  51.6426  25.7271 0002555 146.5770 213.5381 15.51951927  4438
RS6S                    
1 53311U 98067TW  22230.96304105  .00055247  00000+0  89812-3 0  9993
2 53311  51.6420  25.3958 0001976 117.4553 242.6638 15.52143495  4468
RS9S                    
1 53312U 98067TX  22231.02785910  .00052125  00000+0  85019-3 0  9996
2 53312  51.6425  25.0789 0002962 148.7839 211.3327 15.52073844  4416
RS12S                   
1 53313U 98067TY  22230.89828617  .00052527  00000+0  85552-3 0  9991
2 53313  51.6424  25.7141 0002530 154.4712 205.6403 15.52111406  4441
RS4S                    
1 53321U 98067TZ  22231.48064807  .00040512  00000+0  66540-3 0  9996
2 53321  51.6429  22.8549 0002274 136.3949 223.7221 15.51992292  4539
RS29S (SXC3-2110 CYCLO*)
1 53373U 22096D   22231.41258892  .00009340  00000+0  38226-3 0  9998
2 53373  97.4349 132.8048 0003165 118.0147 242.1410 15.24532525  1540
RS32S (SXC3-212 MONITO*)
1 53374U 22096E   22231.54316225  .00008366  00000+0  34166-3 0  9994
2 53374  97.4350 132.9361 0003402 113.1292 247.0304 15.24639420  1563
RS34S (SXC3-218 KUZBAS*)
1 53375U 22096F   22231.21484836  .00007649  00000+0  31257-3 0  9994
2 53375  97.4349 132.6105 0003388 113.1904 246.9691 15.24647977  1516
RS23S (SXC3-21 UTMN)    
1 53376U 22096G   22231.21463325  .00008599  00000+0  35061-3 0  9997
2 53376  97.4350 132.6107 0003386 111.6568 248.5030 15.24686102  1516
RS28S (SXC3-214 MIET-A*)
1 53377U 22096H   22231.54257311  .00007213  00000+0  29433-3 0  9998
2 53377  97.4351 132.9368 0003446 111.0678 249.0929 15.24716263  1563
RS26S (KAI-1)           
1 53378U 22096J   22231.41104621  .00007435  00000+0  30301-3 0  9992
2 53378  97.4350 132.8069 0003456 106.1964 253.9654 15.24751198  1547
RS19S (SXC3-219 ISOI)   
1 53381U 22096M   22230.88352573  .00008695  00000+0  34951-3 0  9991
2 53381  97.4350 132.2889 0005901  69.3644 290.8226 15.25150036  1468
RS21S (CUBESX-HSE-2)    
1 53383U 22096P   22231.53920055  .00007181  00000+0  28862-3 0  9995
2 53383  97.4349 132.9413 0006029  66.8028 293.3844 15.25219243  1569
RS30S (SXC3-217 SIREN)  
1 53384U 22096Q   22231.21101525  .00008396  00000+0  33675-3 0  9991
2 53384  97.4349 132.6155 0006123  66.8225 293.3657 15.25236199  1510
RS20S (GEOSCAN-EDELVEIS)
1 53385U 22096R   22231.40688202  .00009008  00000+0  35931-3 0  9993
2 53385  97.4349 132.8124 0006605  66.5688 293.6244 15.25394883  1570
RS33S (SXC3-215 VIZARD) 
1 53386U 22096S   22231.53669246  .00009571  00000+0  37894-3 0  9990
2 53386  97.4350 132.9446 0007357  65.7433 294.4573 15.25620066  1585
